{"fetched_at":"2026-03-29T16:36:15Z","count":15609,"tles":[{"name":"STARLINK-11702 [DTC]","line1":"1 63752U 25089B   26087.62160396  .00241770  00000+0  18297-2 0  9992","line2":"2 63752  42.9993 178.0717 0000990 282.7253  77.3504 15.70887255 53113","category":"Starlink"}]}