{
  "norad_id": 63752,
  "name": "STARLINK-11702 [DTC]",
  "history": [
    {
      "epoch": "2026-03-28T14:55:06.582144Z",
      "apogee_km": 357.02671652357185,
      "perigee_km": 355.69328611731,
      "latitude_deg": 6.528089780595332e-06,
      "longitude_deg": 128.25486472301836,
      "height_km": 355.9851492229132,
      "semi_major_axis_km": 6734.49700132044,
      "eccentricity": 9.9e-05,
      "inclination_deg": 42.9993,
      "raan_deg": 178.0717,
      "arg_perigee_deg": 282.7253,
      "mean_anomaly_deg": 77.3504,
      "mean_motion_rev_day": 15.70887255
    }
  ]
}